
STARLINK-30705          
1 57945U 23148L   25028.49352619 -.00001899  00000+0 -51996-4 0  9996
2 57945  53.1608 106.4791 0001472 100.1111 260.0056 15.30205712 76381
STARLINK-30704          
1 57946U 23148M   25027.83674288  .00003460  00000+0  26089-3 0  9991
2 57946  53.1577 159.7450 0001850  82.1986 277.9214 15.04938916 75561
STARLINK-30706          
1 57947U 23148N   25028.49985632  .00002571  00000+0  98897-4 0  9992
2 57947  53.1581 106.5063 0000972  71.3269 288.7837 15.30201337 76386
STARLINK-30709          
1 57948U 23148P   25028.63471252 -.00002593  00000+0 -75541-4 0  9994
2 57948  53.1603 105.7740 0001432  96.8818 263.2345 15.30163517 76311
STARLINK-30707          
1 57949U 23148Q   25028.49668980  .00000255  00000+0  20730-4 0  9996
2 57949  53.1597 106.4908 0001198  67.9512 292.1616 15.30201605 76387
STARLINK-30701          
1 57950U 23148R   25028.42503757  .00001194  00000+0  52422-4 0  9997
2 57950  53.1606 106.7405 0001158  76.8036 283.3093 15.30204242 76371
STARLINK-30399          
1 57951U 23148S   25028.48613476  .00000527  00000+0  29926-4 0  9996
2 57951  53.1612 106.4096 0001446  80.2557 279.8607 15.30199258 76381
STARLINK-30713          
1 57952U 23148T   25028.47031100 -.00001937  00000+0 -53297-4 0  9990
2 57952  53.1608 106.3333 0001285  99.1010 261.0136 15.30201164 76384
STARLINK-30700          
1 57953U 23148U   25028.44301883  .00000148  00000+0  17142-4 0  9996
2 57953  53.1604  96.5471 0001340 104.5790 255.5359 15.30186656 76420
STARLINK-30703          
1 57954U 23148V   25028.48198651  .00001195  00000+0  52457-4 0  9999
2 57954  53.1589  96.3259 0001132  93.4455 266.6675 15.30196436 76430
STARLINK-30702          
1 57955U 23148W   25028.48620697  .00000398  00000+0  25579-4 0  9999
2 57955  53.1588  96.3480 0001180  95.8715 264.2420 15.30196598 76525
SKYKRAFT-3D             
1 57956U 23084BZ  25028.26559484  .00027266  00000+0  85795-3 0  9998
2 57956  97.5578 155.4807 0007492 303.1265  56.9257 15.32893731 76916
YAOGAN-33 04            
1 57958U 23149A   25028.86156416  .00001501  00000+0  32941-3 0  9995
2 57958  98.1354 341.7599 0001060  34.1082 326.0185 14.58990535 71472
STARLINK-30396          
1 57964U 23151A   25028.24669746  .00000287  00000+0  36306-4 0  9992
2 57964  43.0037  21.9314 0000952 264.2930  95.7804 15.02543169 74743
STARLINK-30524          
1 57965U 23151B   25028.28432335  .00000158  00000+0  26792-4 0  9994
2 57965  43.0069  21.3660 0001374 268.0184  92.0501 15.02537151 74691
STARLINK-30521          
1 57966U 23151C   25028.69095341 -.00000529  00000+0 -24083-4 0  9997
2 57966  43.0082  19.2479 0002523 266.6298  93.4256 15.02534529 74753
STARLINK-30528          
1 57967U 23151D   25028.02284958  .00000466  00000+0  49563-4 0  9997
2 57967  43.0025  22.8305 0001017 275.1505  84.9222 15.02536177 74717
STARLINK-30495          
1 57968U 23151E   25028.25224780  .00000342  00000+0  40385-4 0  9996
2 57968  43.0050  21.9666 0001345 273.5035  86.5654 15.02541722 74742
STARLINK-30484          
1 57969U 23151F   25028.28543204  .00000632  00000+0  61848-4 0  9994
2 57969  43.0066  21.3614 0001280 267.8043  92.2653 15.02536019 74645
STARLINK-30494          
1 57970U 23151G   25028.67180332  .00002068  00000+0  88826-4 0  9998
2 57970  43.0026  11.4417 0001347 259.8928 100.1771 15.25925982 74849
STARLINK-30498          
1 57971U 23151H   25028.65667602  .00024213  00000+0  18030-2 0  9991
2 57971  43.0025  19.8260 0000730 271.6017  88.4742 15.02500820 74686
STARLINK-30505          
1 57972U 23151J   25028.27444853  .00001897  00000+0  15548-3 0  9996
2 57972  43.0071  22.1187 0002681 280.8016  79.2525 15.02540794 74727
STARLINK-30502          
1 57973U 23151K   25028.26668984  .00017792  00000+0  12989-2 0  9995
2 57973  43.0029  22.0676 0001517 256.9471 103.1202 15.03395339 74744
STARLINK-30489          
1 57974U 23151L   25028.68651115 -.00001602  00000+0 -10354-3 0  9990
2 57974  43.0040  19.2007 0000944 267.2506  92.8229 15.02549027 74759
STARLINK-30503          
1 57975U 23151M   25028.27000353  .00001177  00000+0  10219-3 0  9993
2 57975  43.0031  22.0606 0001109 263.0584  97.0133 15.02537330 74745
STARLINK-30512          
1 57976U 23151N   25028.23892009  .00001059  00000+0  93426-4 0  9998
2 57976  43.0029  21.7990 0000952 234.1067 125.9687 15.02539470 74747
STARLINK-30509          
1 57977U 23151P   25028.69191508 -.00001646  00000+0 -10685-3 0  9994
2 57977  43.0042  32.8204 0001246 278.0730  81.9971 15.02516829 74587
STARLINK-30511          
1 57978U 23151Q   25028.68522234  .00001713  00000+0  14181-3 0  9996
2 57978  43.0058  32.7705 0001120 271.9088  88.1626 15.02544270 74632
STARLINK-30508          
1 57979U 23151R   25028.28303823  .00001399  00000+0  11858-3 0  9992
2 57979  43.0055  34.9131 0001485 266.5114  93.5558 15.02544427 74538
STARLINK-30504          
1 57980U 23151S   25028.25581776  .00001358  00000+0  61740-4 0  9997
2 57980  43.0007 359.9057 0001316 256.1545 103.9160 15.25914484 74994
STARLINK-30510          
1 57981U 23151T   25028.27970059  .00000769  00000+0  72002-4 0  9994
2 57981  43.0059  34.8861 0001388 262.5975  97.4710 15.02538183 74532
STARLINK-30507          
1 57982U 23151U   25028.27637113  .00000731  00000+0  69204-4 0  9995
2 57982  43.0051  34.8621 0001210 266.9447  93.1256 15.02538543 74577
STARLINK-30515          
1 57983U 23151V   25028.27304280  .00000924  00000+0  83482-4 0  9990
2 57983  43.0070  34.8388 0001288 269.0827  90.9868 15.02535549 74599
STARLINK-30516          
1 57984U 23151W   25028.73505074  .00003988  00000+0  30999-3 0  9993
2 57984  43.0031  32.2844 0001333 269.2939  90.7751 15.02548287 74652
STARLINK-30519          
1 57985U 23151X   25028.06694858  .00001228  00000+0  10596-3 0  9995
2 57985  43.0070  35.8727 0001342 270.1536  89.9153 15.02536336 74501
YAOGAN-39 03A           
1 57986U 23152A   25028.78055569  .00018954  00000+0  78843-3 0  9999
2 57986  34.9948 204.7338 0003773 301.3823  58.6522 15.22905218 73497
YAOGAN-39 03B           
1 57988U 23152C   25027.79601217  .00016010  50538-7  66143-3 0  9998
2 57988  34.9895 210.8119 0002663 211.7807 148.2747 15.23048464 73316
YAOGAN-39 03C           
1 57990U 23152E   25028.84226204  .00020236  00000+0  84248-3 0  9999
2 57990  34.9891 204.1861 0003540  27.2994 332.7906 15.22866530 73472
STARLINK-30537          
1 57991U 23153A   25028.25144199  .00001289  00000+0  11051-3 0  9997
2 57991  43.0041 112.1590 0001398 264.5000  95.5683 15.02537415 73786
STARLINK-30534          
1 57992U 23153B   25028.59382093  .00001888  00000+0  15480-3 0  9997
2 57992  43.0028 110.4232 0001482 285.4169  74.6510 15.02535114 73846
STARLINK-30536          
1 57993U 23153C   25028.24478491  .00000325  00000+0  39119-4 0  9999
2 57993  43.0036 112.1089 0001360 253.2592 106.8101 15.02535869 73888
STARLINK-30538          
1 57994U 23153D   25028.23812566  .00000878  00000+0  80059-4 0  9996
2 57994  43.0010 112.0529 0000801 259.9363 100.1389 15.02537521 73788
STARLINK-30517          
1 57995U 23153E   25028.50070155  .00000989  00000+0  88267-4 0  9999
2 57995  43.0037 110.5834 0001572 261.8474  98.2190 15.02537765 73935
STARLINK-30543          
1 57996U 23153F   25028.69406000  .00001361  00000+0  39837-4 0  9996
2 57996  43.0013 262.6963 0001826 258.0537 102.0115 15.40709783 76333
STARLINK-30523          
1 57997U 23153G   25028.24145570  .00001300  00000+0  11129-3 0  9996
2 57997  43.0037 112.0865 0001157 274.7556  85.3154 15.02539030 73889
STARLINK-30531          
1 57998U 23153H   25028.27130302  .00001497  00000+0  12584-3 0  9990
2 57998  42.9980 111.4545 0000347 304.3862  55.6947 15.02547177 73895
STARLINK-30552          
1 57999U 23153J   25028.62700040 -.00000128  00000+0  56024-5 0  9992
2 57999  43.0011 109.8168 0001085 267.4545  92.6173 15.02542761 73955
STARLINK-30545          
1 58000U 23153K   25028.49071456  .00005081  00000+0  39088-3 0  9994
2 58000  43.0039 110.5114 0001390 282.7640  77.3047 15.02538975 73923
STARLINK-30535          
1 58001U 23153L   25028.48739026  .00003961  00000+0  30804-3 0  9990
2 58001  43.0006 110.4823 0000709 244.2224 115.8545 15.02544570 73938
STARLINK-30540          
1 58002U 23153M   25028.52401016  .00001269  00000+0  10900-3 0  9995
2 58002  43.0035 110.7441 0001439 272.2089  87.8588 15.02537478 73823
STARLINK-30546          
1 58003U 23153N   25028.48405462  .00001836  00000+0  15089-3 0  9993
2 58003  43.0023 110.4610 0001054 273.8249  86.2473 15.02541851 73921
STARLINK-30539          
1 58004U 23153P   25028.28129266  .00001701  00000+0  14098-3 0  9997
2 58004  43.0045 111.5219 0001673 270.2049  89.8602 15.02537879 73893
STARLINK-30530          
1 58005U 23153Q   25028.27463011  .00001740  00000+0  14383-3 0  9996
2 58005  43.0036 111.4687 0001677 269.1231  90.9419 15.02540764 73904
STARLINK-30526          
1 58006U 23153R   25028.42153376  .00001535  00000+0  12867-3 0  9991
2 58006  42.9983  85.6589 0000918 271.1546  88.9191 15.02539268 74201
STARLINK-30527          
1 58007U 23153S   25028.25846753  .00092154  00000+0  27904-2 0  9995
2 58007  43.0013 330.6836 0006423 199.3274 160.7337 15.33141737 75422
STARLINK-30522          
1 58008U 23153T   25028.49737871 -.00000081  00000+0  91034-5 0  9999
2 58008  43.0048 110.5552 0001484 268.7550  91.3122 15.02533293 73923
STARLINK-30486          
1 58009U 23153U   25027.67968153  .00002272  00000+0  18327-3 0  9993
2 58009  43.0029 114.7386 0001961 256.4481 103.6143 15.02524546 73708
STARLINK-30520          
1 58010U 23153V   25028.26809070  .00000269  00000+0  34999-4 0  9991
2 58010  43.0045 112.2621 0002075 261.3538  98.7069 15.02533767 73782
